NORAD_CAT_ID,OBJECT_NAME,OBJECT_TYPE,EPOCH,MEAN_MOTION,ECCENTRICITY,INCLINATION,RA_OF_ASC_NODE,ARG_OF_PERICENTER,MEAN_ANOMALY,BSTAR,MEAN_MOTION_DOT,MEAN_MOTION_DDOT,TLE_LINE0,TLE_LINE1,TLE_LINE2,SEMIMAJOR_AXIS,PERIOD,APOGEE,PERIGEE,DECAYED
51109.0,STARLINK-3358,PAYLOAD,2022-03-01 06:00:00,15.73209348,0.0003071,53.2154,69.8434,12.7974,337.9086,-0.00026381,-0.00037507,0.0,0 STARLINK-3358,1 51109U 22005F   22060.25001157 -.00037507  00000-0 -26381-3 0  9993,2 51109  53.2154  69.8434 0003071  12.7974 337.9086 15.73209348  7817,6727.869000000002,91.533,351.8,347.667,0.0
51109.0,STARLINK-3358,PAYLOAD,2022-03-01 14:00:01,15.73246135,0.0003186,53.2153,68.1939,9.7499,69.8843,-0.0004756,-0.00066993,0.0,0 STARLINK-3358,1 51109U 22005F   22060.58334491 -.00066993  00000-0 -47560-3 0  9992,2 51109  53.2153  68.1939 0003186   9.7499  69.8843 15.73246135  7865,6727.764,91.53,351.772,347.485,0.0
51109.0,STARLINK-3358,PAYLOAD,2022-03-01 22:00:01,15.73193049,0.0002941,53.2155,66.5422,11.8584,156.7993,-1.4730999999999992e-05,-2.689e-05,0.0,0 STARLINK-3358,1 51109U 22005F   22060.91668981 -.00002689  00000-0 -14731-4 0  9990,2 51109  53.2155  66.5422 0002941  11.8584 156.7993 15.73193049  3709,6727.915,91.534,351.759,347.801,0.0
51109.0,STARLINK-3358,PAYLOAD,2022-03-02 06:00:00,15.73169366,0.0003215,53.2156,64.8944,15.5344,241.9834,0.00028634,0.0003971,0.0,0 STARLINK-3358,1 51109U 22005F   22061.25001157  .00039710  00000-0  28634-3 0  9993,2 51109  53.2156  64.8944 0003215  15.5344 241.9834 15.73169366  7979,6727.983,91.535,352.011,347.684,0.0
51109.0,STARLINK-3358,PAYLOAD,2022-03-02 14:00:01,15.73234022,0.0003236,53.2153,63.2448,14.185,332.2183,-0.00022982,-0.00032808,0.0,0 STARLINK-3358,1 51109U 22005F   22061.58334491 -.00032808  00000-0 -22982-3 0  9992,2 51109  53.2153  63.2448 0003236  14.1850 332.2183 15.73234022  3685,6727.7980000000025,91.531,351.84,347.486,0.0
51109.0,STARLINK-3358,PAYLOAD,2022-03-02 20:00:01,15.73193893,0.0002988,53.2154,62.006,15.6804,307.4466,-7.6654e-05,-0.00011366,0.0,0 STARLINK-3358,1 51109U 22005F   22061.83334491 -.00011366  00000-0 -76654-4 0  9992,2 51109  53.2154  62.0060 0002988  15.6804 307.4466 15.73193893  8066,6727.913000000001,91.534,351.788,347.767,0.0
51109.0,STARLINK-3358,PAYLOAD,2022-03-02 22:00:00,15.73188774,0.0002963,53.2154,61.5934,16.8621,58.4983,-0.00010196,-0.00014903,0.0,0 STARLINK-3358,1 51109U 22005F   22061.91667824 -.00014903  00000-0 -10196-3 0  9998,2 51109  53.2154  61.5934 0002963  16.8621  58.4983 15.73188774  3696,6727.927,91.534,351.786,347.7990000000001,0.0
51109.0,STARLINK-3358,PAYLOAD,2022-03-03 14:00:01,15.73198943,0.0003212,53.2156,58.2959,18.8226,234.3287,0.00017577,0.00024121,0.0,0 STARLINK-3358,1 51109U 22005F   22062.58334491  .00024121  00000-0  17577-3 0  9994,2 51109  53.2156  58.2959 0003212  18.8226 234.3287 15.73198943  3702,6727.898,91.533,351.9240000000001,347.602,0.0
51109.0,STARLINK-3358,PAYLOAD,2022-03-03 18:00:00,15.73207138,0.0003056,53.2161,57.47,19.4574,98.1564,8.2527e-05,0.0001098,0.0,0 STARLINK-3358,1 51109U 22005F   22062.75001157  .00010980  00000-0  82527-4 0  9999,2 51109  53.2161  57.4700 0003056  19.4574  98.1564 15.73207138  8203,6727.875,91.533,351.796,347.684,0.0
51109.0,STARLINK-3358,PAYLOAD,2022-03-03 22:00:00,15.73222814,0.0002979,53.2161,56.6445,19.9732,322.1094,-0.00019206,-0.00027522,0.0,0 STARLINK-3358,1 51109U 22005F   22062.91667824 -.00027522  00000-0 -19206-3 0  9991,2 51109  53.2161  56.6445 0002979  19.9732 322.1094 15.73222814  3700,6727.83,91.532,351.699,347.691,0.0
51109.0,STARLINK-3358,PAYLOAD,2022-03-04 14:00:01,15.73205149,0.000309,53.216,53.3468,15.1373,144.9184,0.00022534,0.00031133,0.0,0 STARLINK-3358,1 51109U 22005F   22063.58335648  .00031133  00000-0  22534-3 0  9990,2 51109  53.2160  53.3468 0003090  15.1373 144.9184 15.73205149  3715,6727.88,91.533,351.824,347.667,0.0
51109.0,STARLINK-3358,PAYLOAD,2022-03-04 20:00:03,15.73224064,0.0002833,53.216,52.1082,15.0708,121.7582,0.00019214,0.0002646,0.0,0 STARLINK-3358,1 51109U 22005F   22063.83336806  .00026460  00000-0  19214-3 0  9993,2 51109  53.2160  52.1082 0002833  15.0708 121.7582 15.73224064  8378,6727.8269999999975,91.532,351.598,347.786,0.0
51109.0,STARLINK-3358,PAYLOAD,2022-03-04 22:00:00,15.73246917,0.0002788999999999,53.2162,51.6958,15.208,233.7244,-0.00010705,-0.00015652,0.0,0 STARLINK-3358,1 51109U 22005F   22063.91667824 -.00015652  00000-0 -10705-3 0  9998,2 51109  53.2162  51.6958 0002789  15.2080 233.7244 15.73246917  3691,6727.761,91.53,351.50300000000016,347.75,0.0
51109.0,STARLINK-3358,PAYLOAD,2022-03-05 06:00:00,15.73229613,0.0002986,53.2162,50.0483,11.9682,325.9452,-0.00040868,-0.00057674,0.0,0 STARLINK-3358,1 51109U 22005F   22064.25001157 -.00057674  00000-0 -40868-3 0  9990,2 51109  53.2162  50.0483 0002986  11.9682 325.9452 15.73229613  8444,6727.811,91.531,351.685,347.667,0.0
51109.0,STARLINK-3358,PAYLOAD,2022-03-05 14:00:01,15.73224569,0.000296,53.2163,48.3981,13.1915,53.6931,-0.00018343,-0.00026319,0.0,0 STARLINK-3358,1 51109U 22005F   22064.58334491 -.00026319  00000-0 -18343-3 0  9991,2 51109  53.2163  48.3981 0002960  13.1915  53.6931 15.73224569  8490,6727.825,91.532,351.682,347.699,0.0
51109.0,STARLINK-3358,PAYLOAD,2022-03-05 22:00:01,15.73205884,0.0002832,53.2168,46.747,19.8748,136.012,1.916e-05,2.068e-05,0.0,0 STARLINK-3358,1 51109U 22005F   22064.91668981  .00002068  00000-0  19160-4 0  9994,2 51109  53.2168  46.7470 0002832  19.8748 136.0120 15.73205884  3709,6727.878000000002,91.533,351.649,347.838,0.0
51109.0,STARLINK-3358,PAYLOAD,2022-03-06 06:00:00,15.73255589,0.0003021,53.217,45.0997,19.3008,225.4881,-0.00051518,-0.00072496,0.0,0 STARLINK-3358,1 51109U 22005F   22065.25001157 -.00072496  00000-0 -51518-3 0  9994,2 51109  53.2170  45.0997 0003021  19.3008 225.4881 15.73255589  8601,6727.736999999999,91.53,351.634,347.569,0.0
51109.0,STARLINK-3358,PAYLOAD,2022-03-06 14:00:01,15.73197701,0.0002901,53.2167,43.4493,15.6652,318.0956,0.00027262,0.00037813,0.0,0 STARLINK-3358,1 51109U 22005F   22065.58334491  .00037813  00000-0  27262-3 0  9991,2 51109  53.2167  43.4493 0002901  15.6652 318.0956 15.73197701  3697,6727.901999999999,91.533,351.718,347.815,0.0
51109.0,STARLINK-3358,PAYLOAD,2022-03-06 22:00:00,15.73248757,0.0002722,53.217,41.7988,18.1488,44.5369,-0.00038542,-0.00054488,0.0,0 STARLINK-3358,1 51109U 22005F   22065.91667824 -.00054488  00000-0 -38542-3 0  9999,2 51109  53.2170  41.7988 0002722  18.1488  44.5369 15.73248757  8701,6727.755999999999,91.53,351.452,347.79,0.0
51109.0,STARLINK-3358,PAYLOAD,2022-03-07 06:00:00,15.7318772,0.0002884,53.2168,40.1514,15.0171,136.6341,-0.00063759,-0.00089138,0.0,0 STARLINK-3358,1 51109U 22005F   22066.25001157 -.00089138  00000-0 -63759-3 0  9996,2 51109  53.2168  40.1514 0002884  15.0171 136.6341 15.73187720  8750,6727.93,91.534,351.736,347.855,0.0
51109.0,STARLINK-3358,PAYLOAD,2022-03-07 12:00:00,15.73145818,0.0002852,53.2167,38.9139,12.9703,115.3427,-0.00042047,-0.00059097,0.0,0 STARLINK-3358,1 51109U 22005F   22066.50001157 -.00059097  00000-0 -42047-3 0  9992,2 51109  53.2167  38.9139 0002852  12.9703 115.3427 15.73145818  3733,6728.05,91.536,351.833,347.996,0.0
51109.0,STARLINK-3358,PAYLOAD,2022-03-07 22:00:00,15.73090861,0.0002679,53.2173,36.8507,18.7684,310.5439,0.0006717,0.00094279,0.0,0 STARLINK-3358,1 51109U 22005F   22066.91667824  .00094279  00000-0  67170-3 0  9999,2 51109  53.2173  36.8507 0002679  18.7684 310.5439 15.73090861  8863,6728.206,91.54,351.874,348.269,0.0
51109.0,STARLINK-3358,PAYLOAD,2022-03-08 14:00:01,15.73226367,0.0002788,53.217,33.5531,18.5729,128.4805,0.00033415,0.00046594,0.0,0 STARLINK-3358,1 51109U 22005F   22067.58334491  .00046594  00000-0  33415-3 0  9996,2 51109  53.2170  33.5531 0002788  18.5729 128.4805 15.73226367  3691,6727.82,91.532,351.561,347.809,0.0
51109.0,STARLINK-3358,PAYLOAD,2022-03-08 20:00:01,15.73256226,0.0002591,53.2169,32.315,19.4518,104.3134,7.0801e-05,9.35e-05,0.0,0 STARLINK-3358,1 51109U 22005F   22067.83334491  .00009350  00000-0  70801-4 0  9994,2 51109  53.2169  32.3150 0002591  19.4518 104.3134 15.73256226  9007,6727.735,91.53,351.343,347.857,0.0
51109.0,STARLINK-3358,PAYLOAD,2022-03-08 22:00:00,15.732965099999998,0.0002527,53.2171,31.9029,18.4861,217.516,-0.00052754,-0.00074326,0.0,0 STARLINK-3358,1 51109U 22005F   22067.91667824 -.00074326  00000-0 -52754-3 0  9995,2 51109  53.2171  31.9029 0002527  18.4861 217.5160 15.73296510  3706,6727.62,91.528,351.185,347.785,0.0
51109.0,STARLINK-3358,PAYLOAD,2022-03-09 06:00:00,15.7322249,0.0002749,53.2169,30.2554,13.9788,311.0418,-0.00041662,-0.00058754,0.0,0 STARLINK-3358,1 51109U 22005F   22068.25001157 -.00058754  00000-0 -41662-3 0  9997,2 51109  53.2169  30.2554 0002749  13.9788 311.0418 15.73222490  9070,6727.831,91.532,351.546,347.847,0.0
51109.0,STARLINK-3358,PAYLOAD,2022-03-09 14:00:01,15.73172015,0.000261,53.2169,28.6045,14.8997,39.0604,0.00029348,0.00040722,0.0,0 STARLINK-3358,1 51109U 22005F   22068.58334491  .00040722  00000-0  29348-3 0  9994,2 51109  53.2169  28.6045 0002610  14.8997  39.0604 15.73172015  3698,6727.975,91.535,351.596,348.084,0.0
51109.0,STARLINK-3358,PAYLOAD,2022-03-09 22:00:01,15.73239921,0.000249,53.2173,26.9543,18.696,124.228,-6.2942e-05,-9.462e-05,0.0,0 STARLINK-3358,1 51109U 22005F   22068.91668981 -.00009462  00000-0 -62942-4 0  9991,2 51109  53.2173  26.9543 0002490  18.6960 124.2280 15.73239921  9171,6727.781,91.531,351.32199999999995,347.971,0.0
51109.0,STARLINK-3358,PAYLOAD,2022-03-10 14:00:01,15.73194173,0.0002651,53.217,23.6559,21.2104,299.558,0.00020693,0.00028515,0.0,0 STARLINK-3358,1 51109U 22005F   22069.58334491  .00028515  00000-0  20693-3 0  9995,2 51109  53.2170  23.6559 0002651  21.2104 299.5580 15.73194173  3697,6727.9119999999975,91.534,351.56,347.99300000000005,0.0
